CZ-4B R/B               
1 28059U 03049C   16257.64561388  .00000008  00000-0  14016-4 0  9996
2 28059  98.5975 131.4492 0050519  11.7341  12.6769 14.52455239683547
CZ-2C R/B               
1 28222U 04012C   16257.85845624  .00001228  00000-0  80148-4 0  9994
2 28222  97.4837 214.3526 0050487  54.4851 357.6484 15.08685190678900
SL-16 R/B               
1 28353U 04021B   16258.21918882  .00000334  00000-0  20002-3 0  9996
2 28353  71.0005 297.2097 0007158 261.5223  98.5088 14.14182600633146
CZ-2C R/B               
1 28480U 04046B   16257.93316082 -.00000004  00000-0  14376-4 0  9999
2 28480  98.1897   6.0088 0141215 320.2240 149.0390 14.25606013614853
ARIANE 5 R/B            
1 28499U 04049H   16258.23503987  .00000088  00000-0  18323-4 0  9995
2 28499  98.1041 333.3103 0093148  27.1819  35.0801 14.79731744633181
CZ-2D R/B               
1 28738U 05024B   16258.10736606  .00000930  00000-0  59960-4 0  9995
2 28738  97.5345 293.8777 0011099 229.2471 130.7796 15.10719172614124
SUZAKU (ASTRO-EII)      
1 28773U 05025A   16257.49283672  .00001711  00000-0  84778-4 0  9999
2 28773  31.3829 289.7772 0004763  92.8596 267.2595 15.15038218615345
ALOS (DAICHI)           
1 28931U 06002A   16258.51728633  .00000239  00000-0  56117-4 0  9996
2 28931  97.8774 293.2152 0002420  93.9486 266.1996 14.62238625567172
H-2A R/B                
1 28932U 06002B   16257.97013859  .00000706  00000-0  72272-4 0  9992
2 28932  98.2061 163.8048 0091496 135.7616 289.9499 14.91015932576531
AKARI (ASTRO-F)         
1 28939U 06005A   16258.48389892  .00004372  00000-0  14202-3 0  9993
2 28939  98.2500  64.2405 0113265  61.4269 299.8310 15.26510652571024
RESURS-DK 1             
1 29228U 06021A   16258.47892633  .00000288  00000-0  29346-4 0  9992
2 29228  69.9343  79.4519 0003418   2.7623 357.3556 15.01981317566704
GENESIS 1               
1 29252U 06029A   16257.93487185  .00000941  00000-0  58656-4 0  9991
2 29252  64.5042 107.3988 0022225 223.3868 234.7566 15.16221748559856
CZ-4B R/B               
1 29507U 06046C   16258.49555162  .00001282  00000-0  10636-3 0  9990
2 29507  97.7899 259.8042 0044992 107.0710 253.5448 14.99844779539716
CZ-2C R/B               
1 31114U 07010B   16257.76476297 -.00000003  00000-0  18163-4 0  9994
2 31114  98.4079 168.3171 0058774 298.5823  60.9448 14.19215811488299
COSMO-SKYMED 1          
1 31598U 07023A   16258.46131318 -.00000205  00000-0 -19261-4 0  9999
2 31598  97.8770  80.4378 0001374  76.5697 283.5671 14.82155247501604
GENESIS 2               
1 31789U 07028A   16257.89415777  .00001004  00000-0  61933-4 0  9995
2 31789  64.5043 144.5170 0051347 254.9165 104.6272 15.15474693507027
COSMOS 2428             
1 31792U 07029A   16258.46696445 -.00000384  00000-0 -18234-3 0  9994
2 31792  70.9251 270.9425 0010683 325.7957  34.2474 14.12316516475148
SL-16 R/B               
1 31793U 07029B   16258.49107579 -.00000140  00000-0 -48070-4 0  9995
2 31793  70.9730 248.2582 0002488 258.7783 247.7668 14.14362545475735
KORONAS-FOTON           
1 33504U 09003A   16257.69393118  .00000936  00000-0  48997-4 0  9997
2 33504  82.4445 147.6711 0019392 350.0451  10.0394 15.14457318419621
TIANGONG 1              
1 37820U 11053A   16258.57048067  .00021342  00000-0  20573-3 0  9991
2 37820  42.7637  71.5690 0016773 300.1537 122.0084 15.65897760284580
CZ-3B R/B               
1 38253U 12018D   16258.31602665  .00287384  59966-6  49797-3 0  9996
2 38253  54.9639  83.1972 3326666 281.7348  43.4460  8.96140250 98816
H-2A R/B                
1 38341U 12025E   16258.17002347  .00000255  00000-0  38016-4 0  9999
2 38341  98.4711 313.2711 0055329 326.7529  33.0211 14.83395511233959
CUSAT 2 & FALCON 9 R/B  
1 39271U 13055G   16257.53531169  .00008737  00000-0  23433-3 0  9993
2 39271  80.9688 288.8507 0649407 298.2171  55.4900 14.32997954152948
ALOS-2                  
1 39766U 14029A   16258.51113597 -.00000190  00000-0 -18559-4 0  9995
2 39766  97.9219 353.8016 0001473  87.0372 273.1003 14.79469919124842
ASTRO-H (HITOMI)        
1 41337U 16012A   16257.83645445  .00000468  00000-0  31509-4 0  9998
2 41337  31.0059  69.7497 0012549 192.4220 167.6106 14.98131828 31445
AL-1 (AOLONG 1)         
1 41629U 16042F   16239.65613786  .02812959  76394-5  11024-3 0  9999
2 41629  40.7954   1.0182 0028766 314.0142  46.0026 16.40441923 10013
